SHENZHOU-21 (SZ-21)     
1 66263U 25246A   25308.16010129  .00032649  00000+0  38953-3 0  9994
2 66263  41.4668 251.0039 0006377 319.7576  40.2790 15.60341380257989
CZ-2F R/B               
1 66264U 25246B   25308.12924896  .01001864  75817-5  63920-3 0  9998
2 66264  41.4653 249.8168 0095739 151.8123 208.7960 16.06758210   560
